NORAD_CAT_ID,OBJECT_NAME,OBJECT_TYPE,EPOCH,MEAN_MOTION,ECCENTRICITY,INCLINATION,RA_OF_ASC_NODE,ARG_OF_PERICENTER,MEAN_ANOMALY,BSTAR,MEAN_MOTION_DOT,MEAN_MOTION_DDOT,TLE_LINE0,TLE_LINE1,TLE_LINE2,SEMIMAJOR_AXIS,PERIOD,APOGEE,PERIGEE,DECAYED
53773.0,STARLINK-4718,PAYLOAD,2022-10-01 14:00:01,15.73213791,0.0001368,53.2145,165.5392,128.7774,25.1133,0.00018226,0.0002504999999999,0.0,0 STARLINK-4718,1 53773U 22111A   22274.58334491  .00025050  00000-0  18226-3 0  9990,2 53773  53.2145 165.5392 0001368 128.7774  25.1133 15.73213791  1300,6727.856,91.532,350.641,348.8,0.0
53773.0,STARLINK-4718,PAYLOAD,2022-10-01 22:00:00,15.73237605,0.0001422,53.2144,163.8914,121.8085,121.0284,-0.00085633,-0.00119304,0.0,0 STARLINK-4718,1 53773U 22111A   22274.91667824 -.00119304  00000-0 -85633-3 0  9990,2 53773  53.2144 163.8914 0001422 121.8085 121.0284 15.73237605  1303,6727.788000000001,91.531,350.61,348.696,0.0
53773.0,STARLINK-4718,PAYLOAD,2022-10-02 06:00:00,15.73138953,0.0001189,53.214,162.2421,123.7597,207.9967,0.00051447,0.00072014,0.0,0 STARLINK-4718,1 53773U 22111A   22275.25001157  .00072014  00000-0  51447-3 0  9999,2 53773  53.2140 162.2421 0001189 123.7597 207.9967 15.73138953  3269,6728.069,91.537,350.7340000000001,349.134,0.0
53773.0,STARLINK-4718,PAYLOAD,2022-10-02 14:00:01,15.73163309,0.0001353,53.2143,160.5906,136.6184,284.0288,0.00089513,0.00126717,0.0,0 STARLINK-4718,1 53773U 22111A   22275.58334491  .00126717  00000-0  89513-3 0  9990,2 53773  53.2143 160.5906 0001353 136.6184 284.0288 15.73163309  1307,6728.0,91.535,350.775,348.954,0.0
53773.0,STARLINK-4718,PAYLOAD,2022-10-02 22:00:00,15.73277728,0.0001167,53.2144,158.9428,133.5205,16.0443,-0.00044908,-0.00063381,0.0,0 STARLINK-4718,1 53773U 22111A   22275.91667824 -.00063381  00000-0 -44908-3 0  9994,2 53773  53.2144 158.9428 0001167 133.5205  16.0443 15.73277728  1308,6727.674,91.529,350.324,348.75300000000016,0.0
53773.0,STARLINK-4718,PAYLOAD,2022-10-03 06:00:00,15.73272517,0.0001008,53.2145,157.2933,135.303,103.247,-0.00037515,-0.000531,0.0,0 STARLINK-4718,1 53773U 22111A   22276.25001157 -.00053100  00000-0 -37515-3 0  9997,2 53773  53.2145 157.2933 0001008 135.3030 103.2470 15.73272517  3427,6727.688,91.529,350.232,348.875,0.0
53773.0,STARLINK-4718,PAYLOAD,2022-10-03 14:00:01,15.73200714,0.000132,53.2145,155.6419,136.9422,190.6261,0.00044573,0.00062403,0.0,0 STARLINK-4718,1 53773U 22111A   22276.58334491  .00062403  00000-0  44573-3 0  9999,2 53773  53.2145 155.6419 0001320 136.9422 190.6261 15.73200714  1300,6727.893,91.533,350.646,348.87,0.0
53773.0,STARLINK-4718,PAYLOAD,2022-10-03 22:00:00,15.73259023,0.0001183,53.2144,153.9946,132.9697,283.5347,-0.00039533,-0.00055874,0.0,0 STARLINK-4718,1 53773U 22111A   22276.91667824 -.00055874  00000-0 -39533-3 0  9991,2 53773  53.2144 153.9946 0001183 132.9697 283.5347 15.73259023  3522,6727.727,91.53,350.38800000000015,348.796,0.0
53773.0,STARLINK-4718,PAYLOAD,2022-10-04 14:00:01,15.72830644,0.000162,53.2165,150.6962,147.9075,86.5148,-0.0028751,-0.00380366,0.0,0 STARLINK-4718,1 53773U 22111A   22277.58334491 -.00380366  00000-0 -28751-2 0  9992,2 53773  53.2165 150.6962 0001620 147.9075  86.5148 15.72830644  1306,6728.948,91.555,351.904,349.723,0.0
53773.0,STARLINK-4718,PAYLOAD,2022-10-04 16:00:00,15.73021435,0.000156,53.2166,150.2848,151.1354,195.3188,-0.0070731,-0.00887505,0.0,0 STARLINK-4718,1 53773U 22111A   22277.66667824 -.00887505  00000-0 -70731-2 0  9992,2 53773  53.2166 150.2848 0001560 151.1354 195.3188 15.73021435  3649,6728.404,91.544,351.319,349.22,0.0
53773.0,STARLINK-4718,PAYLOAD,2022-10-04 22:00:00,15.72584444,0.0001296999999999,53.2173,149.0507,130.5828,192.1938,-0.0097084,-0.01178412,0.0,0 STARLINK-4718,1 53773U 22111A   22277.91667824 -.01178412  00000-0 -97084-2 0  9991,2 53773  53.2173 149.0507 0001297 130.5828 192.1938 15.72584444  3684,6729.651,91.569,352.389,350.64300000000014,0.0
53773.0,STARLINK-4718,PAYLOAD,2022-10-05 14:00:01,15.7086988,0.0001348,53.2175,145.7567,124.6105,12.5264,-0.010433,-0.01197328,0.0,0 STARLINK-4718,1 53773U 22111A   22278.58335648 -.01197328  00000-0 -10433-1 0  9990,2 53773  53.2175 145.7567 0001348 124.6105  12.5264 15.70869880  1306,6734.547,91.669,357.319,355.504,0.0
53773.0,STARLINK-4718,PAYLOAD,2022-10-05 22:00:00,15.7003586,0.0001688,53.2173,144.1154,139.1197,83.5418,-0.011115,-0.01228288,0.0,0 STARLINK-4718,1 53773U 22111A   22278.91667824 -.01228288  00000-0 -11115-1 0  9999,2 53773  53.2173 144.1154 0001688 139.1197  83.5418 15.70035860  1300,6736.931,91.718,359.934,357.659,0.0
53773.0,STARLINK-4718,PAYLOAD,2022-10-06 06:00:00,15.69156593,0.0001378,53.2172,142.4747,135.3546,171.8895,-0.011219,-0.01198112,0.0,0 STARLINK-4718,1 53773U 22111A   22279.25001157 -.01198112  00000-0 -11219-1 0  9995,2 53773  53.2172 142.4747 0001378 135.3546 171.8895 15.69156593  3891,6739.448,91.769,362.242,360.384,0.0
53773.0,STARLINK-4718,PAYLOAD,2022-10-06 14:00:01,15.68253841,0.0001278,53.217,140.8344,129.3569,261.4494,-0.01094,-0.01113876,0.0,0 STARLINK-4718,1 53773U 22111A   22279.58334491 -.01113876  00000-0 -10940-1 0  9995,2 53773  53.2170 140.8344 0001278 129.3569 261.4494 15.68253841  1309,6742.034000000002,91.822,364.761,363.037,0.0
53773.0,STARLINK-4718,PAYLOAD,2022-10-06 22:42:55,15.67380018,0.0001688,53.2172,139.0538,141.2555,140.235,-0.012291,-0.01217646,0.0,0 STARLINK-4718,1 53773U 22111A   22279.94646991 -.01217646  00000-0 -12291-1 0  9997,2 53773  53.2172 139.0538 0001688 141.2555 140.2350 15.67380018  1300,6744.54,91.873,367.543,365.266,0.0
53773.0,STARLINK-4718,PAYLOAD,2022-10-07 00:00:00,15.67223203,0.0001706,53.2174,138.7916,138.5383,85.228,-0.012059,-0.0118999,0.0,0 STARLINK-4718,1 53773U 22111A   22280.00001157 -.01189990  00000-0 -12059-1 0  9997,2 53773  53.2174 138.7916 0001706 138.5383  85.2280 15.67223203  4010,6744.989000000001,91.882,368.005,365.704,0.0
53773.0,STARLINK-4718,PAYLOAD,2022-10-07 14:00:01,15.65731443,0.0001435,53.2173,135.9311,132.7964,142.4336,-0.012933,-0.01199865,0.0,0 STARLINK-4718,1 53773U 22111A   22280.58334491 -.01199865  00000-0 -12933-1 0  9993,2 53773  53.2173 135.9311 0001435 132.7964 142.4336 15.65731443  1302,6749.273,91.97,372.106,370.169,0.0
53773.0,STARLINK-4718,PAYLOAD,2022-10-07 22:00:00,15.64881434,0.0001583,53.2174,134.3028,142.9951,211.6528,-0.013517,-0.01210692,0.0,0 STARLINK-4718,1 53773U 22111A   22280.91667824 -.01210692  00000-0 -13517-1 0  9990,2 53773  53.2174 134.3028 0001583 142.9951 211.6528 15.64881434  4157,6751.717,92.02,374.651,372.513,0.0
53773.0,STARLINK-4718,PAYLOAD,2022-10-08 14:00:01,15.63158773,0.0001376999999999,53.2171,131.0467,126.1311,24.2747,-0.014296,-0.01196919,0.0,0 STARLINK-4718,1 53773U 22111A   22281.58334491 -.01196919  00000-0 -14296-1 0  9995,2 53773  53.2171 131.0467 0001377 126.1311  24.2747 15.63158773  1307,6756.676,92.121,379.472,377.611,0.0
53773.0,STARLINK-4718,PAYLOAD,2022-10-08 22:00:00,15.62304296,0.0001708,53.2171,129.4245,140.1247,86.6109,-0.014841,-0.01201068,0.0,0 STARLINK-4718,1 53773U 22111A   22281.91667824 -.01201068  00000-0 -14841-1 0  9999,2 53773  53.2171 129.4245 0001708 140.1247  86.6109 15.62304296  4314,6759.14,92.172,382.159,379.85,0.0
53773.0,STARLINK-4718,PAYLOAD,2022-10-09 14:00:01,15.60590774,0.0001100999999999,53.2169,126.1808,122.7994,253.5101,-0.01586,-0.01200355,0.0,0 STARLINK-4718,1 53773U 22111A   22282.58334491 -.01200355  00000-0 -15860-1 0  9994,2 53773  53.2169 126.1808 0001101 122.7994 253.5101 15.60590774  1301,6764.0859999999975,92.273,386.696,385.207,0.0
53773.0,STARLINK-4718,PAYLOAD,2022-10-09 22:00:00,15.59726178,0.0001171,53.2176,124.5654,107.8948,341.6588,-0.016249,-0.01190538,0.0,0 STARLINK-4718,1 53773U 22111A   22282.91667824 -.01190538  00000-0 -16249-1 0  9993,2 53773  53.2176 124.5654 0001171 107.8948 341.6588 15.59726178  4476,6766.5859999999975,92.324,389.24300000000005,387.659,0.0
53773.0,STARLINK-4718,PAYLOAD,2022-10-10 14:00:01,15.58010997,0.0001675,53.2177,121.334,135.3201,97.6283,-0.017302,-0.01187788,0.0,0 STARLINK-4718,1 53773U 22111A   22283.58334491 -.01187788  00000-0 -17302-1 0  9992,2 53773  53.2177 121.3340 0001675 135.3201  97.6283 15.58010997  1304,6771.551,92.426,394.55,392.282,0.0
53773.0,STARLINK-4718,PAYLOAD,2022-10-10 22:00:01,15.57154571,0.0001521999999999,53.2176,119.7244,135.7696,167.3943,-0.017906,-0.0118979,0.0,0 STARLINK-4718,1 53773U 22111A   22283.91668981 -.01189790  00000-0 -17906-1 0  9998,2 53773  53.2176 119.7244 0001522 135.7696 167.3943 15.57154571  1304,6774.034000000002,92.476,396.93,394.86800000000005,0.0
53773.0,STARLINK-4718,PAYLOAD,2022-10-11 06:00:00,15.56296745,0.0001057,53.2174,118.1134,111.5999,260.622,-0.018472,-0.01188447,0.0,0 STARLINK-4718,1 53773U 22111A   22284.25001157 -.01188447  00000-0 -18472-1 0  9999,2 53773  53.2174 118.1134 0001057 111.5999 260.6220 15.56296745  4671,6776.523,92.527,399.104,397.671,0.0
53773.0,STARLINK-4718,PAYLOAD,2022-10-11 14:00:01,15.55437813,0.0001246,53.2176,116.5054,120.6291,319.6853,-0.019007,-0.01184778,0.0,0 STARLINK-4718,1 53773U 22111A   22284.58334491 -.01184778  00000-0 -19007-1 0  9993,2 53773  53.2176 116.5054 0001246 120.6291 319.6853 15.55437813  1308,6779.017,92.578,401.727,400.038,0.0
53773.0,STARLINK-4718,PAYLOAD,2022-10-11 22:00:00,15.54592156,0.0001298,53.217,114.9015,117.6485,29.7215,-0.019896,-0.01218779,0.0,0 STARLINK-4718,1 53773U 22111A   22284.91667824 -.01218779  00000-0 -19896-1 0  9994,2 53773  53.2170 114.9015 0001298 117.6485  29.7215 15.54592156  1301,6781.475,92.629,404.221,402.46,0.0
53773.0,STARLINK-4718,PAYLOAD,2022-10-12 14:00:01,15.52867471,0.000126,53.2175,111.6956,109.3022,169.1067,-0.020902,-0.012034,0.0,0 STARLINK-4718,1 53773U 22111A   22285.58334491 -.01203400  00000-0 -20902-1 0  9994,2 53773  53.2175 111.6956 0001260 109.3022 169.1067 15.52867471  1305,6786.496,92.732,409.216,407.506,0.0
